NORAD_CAT_ID,OBJECT_NAME,OBJECT_TYPE,EPOCH,MEAN_MOTION,ECCENTRICITY,INCLINATION,RA_OF_ASC_NODE,ARG_OF_PERICENTER,MEAN_ANOMALY,BSTAR,MEAN_MOTION_DOT,MEAN_MOTION_DDOT,TLE_LINE0,TLE_LINE1,TLE_LINE2,SEMIMAJOR_AXIS,PERIOD,APOGEE,PERIGEE,DECAYED
55784.0,STARLINK-5797,PAYLOAD,2023-06-25 06:00:00,15.69960513,0.0003545,70.0004,196.1007,265.0855,208.9257,-0.00064809,-0.00077545,0.0,0 STARLINK-5797,1 55784U 23028AV  23176.25001157 -.00077545  00000-0 -64809-3 0  9994,2 55784  70.0004 196.1007 0003545 265.0855 208.9257 15.69960513 18483,6737.147,91.722,361.4,356.624,0.0
55784.0,STARLINK-5797,PAYLOAD,2023-06-25 22:00:01,15.69870111,0.0003491,70.0005,194.2264,264.086,16.6795,0.00094611,0.00114864,0.0,0 STARLINK-5797,1 55784U 23028AV  23176.91668981  .00114864  00000-0  94611-3 0  9999,2 55784  70.0005 194.2264 0003491 264.0860  16.6795 15.69870111 18589,6737.406,91.727,361.623,356.919,0.0
55784.0,STARLINK-5797,PAYLOAD,2023-06-26 02:55:30,15.6991679,0.0003006,69.9983,193.6494,259.3695,100.7162,1.4715e-05,1.556e-05,0.0,0 STARLINK-5797,1 55784U 23028AV  23177.12188335  .00001556  00000-0  14715-4 0  9994,2 55784  69.9983 193.6494 0003006 259.3695 100.7162 15.69916790 18626,6737.272,91.725,361.162,357.112,0.0
55784.0,STARLINK-5797,PAYLOAD,2023-06-27 09:30:32,15.69927332,0.0003848,69.9963,190.0662,269.4806,90.5948,9.2877e-06,9.04e-06,0.0,0 STARLINK-5797,1 55784U 23028AV  23178.39621209  .00000904  00000-0  92877-5 0  9998,2 55784  69.9963 190.0662 0003848 269.4806  90.5948 15.69927332 18826,6737.242,91.724,361.699,356.514,0.0
55784.0,STARLINK-5797,PAYLOAD,2023-06-28 00:48:04,15.69923108,0.0003569,69.9961,188.2734,270.1523,89.9264,5.6681e-06,4.69e-06,0.0,0 STARLINK-5797,1 55784U 23028AV  23179.03338310  .00000469  00000-0  56681-5 0  9997,2 55784  69.9961 188.2734 0003569 270.1523  89.9264 15.69923108 18929,6737.254,91.724,361.524,356.714,0.0
55784.0,STARLINK-5797,PAYLOAD,2023-06-29 02:47:51,15.69919796,0.0003492,69.9967,185.2291,267.6251,92.4545,2.1991e-06,5.1e-07,0.0,0 STARLINK-5797,1 55784U 23028AV  23180.11657071  .00000051  00000-0  21991-5 0  9999,2 55784  69.9967 185.2291 0003492 267.6251  92.4545 15.69919796 19092,6737.263,91.724,361.481,356.776,0.0
55784.0,STARLINK-5797,PAYLOAD,2023-06-29 10:26:36,15.69930556,0.0003054,69.9972,184.3341,263.4218,96.663,-5.7884e-06,-9.09e-06,0.0,0 STARLINK-5797,1 55784U 23028AV  23180.43514929 -.00000909  00000-0 -57884-5 0  9992,2 55784  69.9972 184.3341 0003054 263.4218  96.6630 15.69930556 19149,6737.233,91.724,361.155,357.04,0.0
55784.0,STARLINK-5797,PAYLOAD,2023-06-30 22:00:00,15.69899403,0.000333,69.9996,180.1693,262.7712,187.9299,0.00069044,0.00083552,0.0,0 STARLINK-5797,1 55784U 23028AV  23181.91667824  .00083552  00000-0  69044-3 0  9991,2 55784  69.9996 180.1693 0003330 262.7712 187.9299 15.69899403 19372,6737.322,91.726,361.43,356.943,0.0
55784.0,STARLINK-5797,PAYLOAD,2023-07-01 03:43:55,15.69915204,0.0003182,69.9983,179.4984,251.1375,108.9476,1.7989e-05,1.95e-05,0.0,0 STARLINK-5797,1 55784U 23028AV  23182.15550579  .00001950  00000-0  17989-4 0  9990,2 55784  69.9983 179.4984 0003182 251.1375 108.9476 15.69915204 19417,6737.277,91.725,361.285,356.998,0.0
55784.0,STARLINK-5797,PAYLOAD,2023-07-01 17:29:41,15.69925138,0.000344,69.997,177.8861,265.9621,94.1181,5.9703e-06,5.05e-06,0.0,0 STARLINK-5797,1 55784U 23028AV  23182.72895261  .00000505  00000-0  59703-5 0  9999,2 55784  69.9970 177.8861 0003440 265.9621  94.1181 15.69925138 19509,6737.248,91.724,361.431,356.796,0.0
55784.0,STARLINK-5797,PAYLOAD,2023-07-03 01:36:29,15.69916075,0.0003347,69.998,174.1228,263.6384,96.443,5.766e-06,4.8e-06,0.0,0 STARLINK-5797,1 55784U 23028AV  23184.06700972  .00000480  00000-0  57660-5 0  9994,2 55784  69.9980 174.1228 0003347 263.6384  96.4430 15.69916075 19719,6737.274,91.725,361.394,356.884,0.0
55784.0,STARLINK-5797,PAYLOAD,2023-07-03 09:15:14,15.69926697,0.0003143,69.9981,173.229,261.1757,98.9082,-2.3572e-06,-4.96e-06,0.0,0 STARLINK-5797,1 55784U 23028AV  23184.38558923 -.00000496  00000-0 -23572-5 0  9990,2 55784  69.9981 173.2290 0003143 261.1757  98.9082 15.69926697 19766,6737.244,91.724,361.226,356.991,0.0
55784.0,STARLINK-5797,PAYLOAD,2023-07-03 16:54:00,15.69919165,0.000334,69.9979,172.3323,265.0307,95.0508,-6.0492e-08,-2.2e-06,0.0,0 STARLINK-5797,1 55784U 23028AV  23184.70417617 -.00000220  00000-0 -60492-7 0  9999,2 55784  69.9979 172.3323 0003340 265.0307  95.0508 15.69919165 19812,6737.265,91.724,361.381,356.88,0.0
55784.0,STARLINK-5797,PAYLOAD,2023-07-04 08:11:31,15.69930413,0.0003332,69.9984,170.5417,262.1641,97.9176,6.0747e-06,5.18e-06,0.0,0 STARLINK-5797,1 55784U 23028AV  23185.34133486  .00000518  00000-0  60747-5 0  9998,2 55784  69.9984 170.5417 0003332 262.1641  97.9176 15.69930413 19914,6737.233,91.724,361.343,356.853,0.0
55784.0,STARLINK-5797,PAYLOAD,2023-07-05 01:00:48,15.6991363,0.0003568,69.9983,168.5715,262.6092,97.4698,5.7209e-06,4.75e-06,0.0,0 STARLINK-5797,1 55784U 23028AV  23186.04222862  .00000475  00000-0  57209-5 0  9994,2 55784  69.9983 168.5715 0003568 262.6092  97.4698 15.69913630 20027,6737.281,91.725,361.55,356.742,0.0
55784.0,STARLINK-5797,PAYLOAD,2023-07-05 08:39:33,15.69921895,0.0003807,69.9972,167.6738,272.0091,88.0669,8.6151e-06,8.23e-06,0.0,0 STARLINK-5797,1 55784U 23028AV  23186.36080766  .00000823  00000-0  86151-5 0  9999,2 55784  69.9972 167.6738 0003807 272.0091  88.0669 15.69921895 20071,6737.257,91.724,361.687,356.558,0.0
55784.0,STARLINK-5797,PAYLOAD,2023-07-05 22:25:18,15.69947557,0.0003084,69.9986,166.0614,265.4211,94.6632,2.8665e-05,3.239e-05,0.0,0 STARLINK-5797,1 55784U 23028AV  23186.93423859  .00003239  00000-0  28665-4 0  9995,2 55784  69.9986 166.0614 0003084 265.4211  94.6632 15.69947557 20165,6737.184,91.723,361.127,356.971,0.0
55784.0,STARLINK-5797,PAYLOAD,2023-07-07 05:00:27,15.6985334,0.000232,69.9997,162.4837,251.0993,108.9951,-5.9914e-05,-7.387e-05,0.0,0 STARLINK-5797,1 55784U 23028AV  23188.20865076 -.00007387  00000-0 -59914-4 0  9999,2 55784  69.9997 162.4837 0002320 251.0993 108.9951 15.69853340 20365,6737.454,91.728,360.882,357.756,0.0
55784.0,STARLINK-5797,PAYLOAD,2023-07-07 23:21:27,15.69904159,0.0003279,69.9982,160.3309,271.1125,88.9695,-3.9561e-05,-4.963e-05,0.0,0 STARLINK-5797,1 55784U 23028AV  23188.97323264 -.00004963  00000-0 -39561-4 0  9994,2 55784  69.9982 160.3309 0003279 271.1125  88.9695 15.69904159 20484,6737.308,91.725,361.382,356.964,0.0
55784.0,STARLINK-5797,PAYLOAD,2023-07-08 08:31:54,15.69935219,0.0003382,69.9989,159.2591,269.6682,90.4126,-2.1734e-05,-2.826e-05,0.0,0 STARLINK-5797,1 55784U 23028AV  23189.35548854 -.00002826  00000-0 -21734-4 0  9990,2 55784  69.9989 159.2591 0003382 269.6682  90.4126 15.69935219 20541,6737.219,91.724,361.363,356.806,0.0
55784.0,STARLINK-5797,PAYLOAD,2023-07-09 01:21:11,15.69907744,0.0003164,69.9996,157.2862,271.713,88.3703,2.3297e-05,2.588e-05,0.0,0 STARLINK-5797,1 55784U 23028AV  23190.05638294  .00002588  00000-0  23297-4 0  9996,2 55784  69.9996 157.2862 0003164 271.7130  88.3703 15.69907744 20659,6737.298,91.725,361.295,357.031,0.0
55784.0,STARLINK-5797,PAYLOAD,2023-07-09 22:45:43,15.69917646,0.0003602,69.9977,154.7769,270.1687,89.9096,7.6749e-06,7.1e-06,0.0,0 STARLINK-5797,1 55784U 23028AV  23190.94841577  .00000710  00000-0  76749-5 0  9990,2 55784  69.9977 154.7769 0003602 270.1687  89.9096 15.69917646 20792,6737.27,91.725,361.561,356.708,0.0
55784.0,STARLINK-5797,PAYLOAD,2023-07-10 07:56:13,15.6992434,0.0003267,69.9975,153.7015,267.0508,93.0314,1.3084e-05,1.361e-05,0.0,0 STARLINK-5797,1 55784U 23028AV  23191.33071135  .00001361  00000-0  13084-4 0  9994,2 55784  69.9975 153.7015 0003267 267.0508  93.0314 15.69924340 20852,6737.25,91.724,361.317,356.914,0.0
55784.0,STARLINK-5797,PAYLOAD,2023-07-11 06:52:30,15.69925275,0.0003307,69.9981,151.0155,263.4787,96.6033,-1.2542e-06,-3.64e-06,0.0,0 STARLINK-5797,1 55784U 23028AV  23192.28646587 -.00000364  00000-0 -12542-5 0  9991,2 55784  69.9981 151.0155 0003307 263.4787  96.6033 15.69925275 21002,6737.248,91.724,361.341,356.885,0.0
55784.0,STARLINK-5797,PAYLOAD,2023-07-12 07:20:32,15.69926176,0.0003376,69.9979,148.1491,263.8351,96.246,7.3846e-06,6.75e-06,0.0,0 STARLINK-5797,1 55784U 23028AV  23193.30593027  .00000675  00000-0  73846-5 0  9992,2 55784  69.9979 148.1491 0003376 263.8351  96.2460 15.69926176 21164,6737.245,91.724,361.385,356.836,0.0
55784.0,STARLINK-5797,PAYLOAD,2023-07-13 06:16:49,15.69920308,0.0003273,69.9981,145.4619,259.7638,100.3189,4.2261e-06,2.95e-06,0.0,0 STARLINK-5797,1 55784U 23028AV  23194.26168667  .00000295  00000-0  42261-5 0  9991,2 55784  69.9981 145.4619 0003273 259.7638 100.3189 15.69920308 21310,6737.262,91.724,361.332,356.922,0.0
55784.0,STARLINK-5797,PAYLOAD,2023-07-14 06:44:51,15.69907707,0.0003096,69.9979,142.5953,255.2199,104.8653,4.8729e-05,5.646e-05,0.0,0 STARLINK-5797,1 55784U 23028AV  23195.28115309  .00005646  00000-0  48729-4 0  9998,2 55784  69.9979 142.5953 0003096 255.2199 104.8653 15.69907707 21472,6737.298,91.725,361.249,357.077,0.0
55784.0,STARLINK-5797,PAYLOAD,2023-07-15 02:37:37,15.69930248,0.0003381,69.998,140.2685,261.9463,98.1349,1.3795e-05,1.447e-05,0.0,0 STARLINK-5797,1 55784U 23028AV  23196.10946373  .00001447  00000-0  13795-4 0  9993,2 55784  69.9980 140.2685 0003381 261.9463  98.1349 15.69930248 21604,6737.234,91.724,361.376,356.821,0.0
55784.0,STARLINK-5797,PAYLOAD,2023-07-15 05:41:08,15.69916213,0.0002974,69.9981,139.9091,259.8351,100.2509,-2.2999e-06,-4.89e-06,0.0,0 STARLINK-5797,1 55784U 23028AV  23196.23690874 -.00000489  00000-0 -22999-5 0  9993,2 55784  69.9981 139.9091 0002974 259.8351 100.2509 15.69916213 21621,6737.274,91.725,361.142,357.135,0.0
55784.0,STARLINK-5797,PAYLOAD,2023-07-15 19:26:54,15.69924223,0.0003045,69.9979,138.2969,262.3549,97.7301,-2.986e-06,-5.72e-06,0.0,0 STARLINK-5797,1 55784U 23028AV  23196.81035591 -.00000572  00000-0 -29860-5 0  9993,2 55784  69.9979 138.2969 0003045 262.3549  97.7301 15.69924223 21712,6737.251,91.724,361.167,357.064,0.0
